360191 (360191),e,2.5330,194.5717,105.3985,1.540117,0.5156719,0.47886920,278.6342,06/09.0/2026,2000,H21.08,0.15
# From MPO698286
360192 (360192),e,9.0321,17.9208,219.9927,2.365318,0.2709379,0.56924977,221.1189,06/09.0/2026,2000,H19.16,0.15
# From MPO698326
362310 (362310),e,12.7980,161.7211,129.5894,2.444772,0.2578377,0.78454426,151.0989,06/09.0/2026,2000,H18.01,0.15
# From MPO928219
363067 (363067),e,15.3216,353.0230,64.9612,1.076403,0.8825552,0.09003360,294.8126,06/09.0/2026,2000,H19.21,0.15
# From MPO928219
363069 (363069),e,33.4707,170.8250,255.3512,1.648713,0.4655717,0.34874033,207.2115,06/09.0/2026,2000,H19.65,0.15
# From MPO698346
363401 (363401),e,2.2978,49.6485,154.4670,45.40552,0.0032214,0.13003282,48.7451,06/09.0/2026,2000,H 6.71,0.15
# From MPO698353
363785 (363785),e,2.5892,198.0973,288.6553,2.469489,0.2539765,0.15346396,203.2154,06/09.0/2026,2000,H18.55,0.15
# From MPO968669
363831 (363831),e,6.4189,159.2863,193.5169,1.975109,0.3550729,0.52550729,180.4400,06/09.0/2026,2000,H19.33,0.15
# From MPO698361
364171 (364171),e,3.5495,36.3820,180.0608,44.56128,0.0033134,0.07858422,22.2885,06/09.0/2026,2000,H 6.89,0.15
# From MPO698372
364762 (364762),e,47.9381,254.0188,112.5163,1.619324,0.4783033,0.22585928,40.0467,06/09.0/2026,2000,H19.38,0.15
# From MPEC 2024-AA8
365071 (365071),e,45.8673,150.7287,322.1515,1.029712,0.9432582,0.07392171,285.7161,06/09.0/2026,2000,H18.18,0.15
# From MPO698384
365424 (365424),e,21.4932,46.4520,61.9478,0.989340,1.0015806,0.17090428,212.8419,06/09.0/2026,2000,H21.91,0.15
# From MPO698385
365449 (365449),e,11.2228,128.2285,358.5868,0.968401,1.0342390,0.54066136,335.7259,06/09.0/2026,2000,H20.28,0.15
# From MPO698403
366396 (366396),e,7.5113,339.9147,346.0099,2.535236,0.2441611,0.28784975,55.6228,06/09.0/2026,2000,H18.18,0.15
# From MPO698403
366413 (366413),e,3.7216,307.3204,80.4402,2.585505,0.2370752,0.26832279,337.0620,06/09.0/2026,2000,H17.98,0.15
# From MPEC 2024-VB0
366640 (366640),e,2.9500,9.6872,357.0261,2.260007,0.2900944,0.24902197,241.5101,06/09.0/2026,2000,H18.98,0.15
# From MPEC 2023-D68
366756 (366756),e,3.7691,28.3608,311.7979,2.758556,0.2151203,0.27908203,265.2469,06/09.0/2026,2000,H17.34,0.15
# From MPO698419
367248 (367248),e,19.8816,95.0734,259.9532,1.024541,0.9504074,0.13969742,35.6086,06/09.0/2026,2000,H20.21,0.15
# From MPO968704
367684 (367684),e,9.3629,256.9005,179.6651,1.636884,0.4706273,0.68859278,181.0436,06/09.0/2026,2000,H18.07,0.15
# From MPEC 2024-JU2
367943 Duende,e,11.6098,146.8866,195.7206,0.910574,1.1343084,0.08926735,278.5965,06/09.0/2026,2000,H24.19,0.15
# From MPO698437
368203 (368203),e,12.4646,242.2772,328.8358,2.479122,0.2524976,0.61791090,130.7282,06/09.0/2026,2000,H20.56,0.15
# From MPO698446
368688 (368688),e,11.6286,179.6202,187.9714,2.566280,0.2397441,0.24234026,17.2724,06/09.0/2026,2000,H17.54,0.15
# From MPO698446
368707 (368707),e,8.5721,198.8486,154.8532,2.548777,0.2422179,0.32160104,37.8000,06/09.0/2026,2000,H18.77,0.15
# From MPO698448
368790 (368790),e,25.4596,277.7483,173.5514,1.611132,0.4819560,0.25393486,5.2718,06/09.0/2026,2000,H19.88,0.15
# From MPO698453
369057 (369057),e,4.2686,345.6070,81.0294,1.554740,0.5084138,0.61499486,182.3200,06/09.0/2026,2000,H21.32,0.15
# From MPO698459
369365 (369365),e,16.8325,48.7715,271.0031,2.747148,0.2164616,0.32150700,285.2507,06/09.0/2026,2000,H16.99,0.15
# From MPO698470
369984 (369984),e,17.6345,316.1894,204.3499,1.043652,0.9244226,0.28781412,203.7124,06/09.0/2026,2000,H18.96,0.15
# From MPO698489
370996 (370996),e,5.4237,76.2855,276.9900,2.563918,0.2400754,0.31262981,32.9007,06/09.0/2026,2000,H17.74,0.15
# From MPO698496
371336 (371336),e,30.7930,168.9161,338.2635,2.480947,0.2522190,0.78503085,60.1767,06/09.0/2026,2000,H17.38,0.15
# From MPO698530
373135 (373135),e,4.3856,203.0266,59.6581,1.652525,0.4639618,0.49749067,40.9856,06/09.0/2026,2000,H19.52,0.15
# From MPO698535
373393 (373393),e,5.2526,177.0574,152.9922,2.146960,0.3133056,0.48747083,32.1871,06/09.0/2026,2000,H19.18,0.15
# From MPO730913
375054 (375054),e,25.5987,316.3250,251.2563,1.298340,0.6662254,0.41636816,319.4926,06/09.0/2026,2000,H20.81,0.15
# From MPO698577
375657 (375657),e,13.1160,330.2167,268.4810,1.225292,0.7266825,0.31428503,212.9733,06/09.0/2026,2000,H21.49,0.15
# From MPO698598
376729 (376729),e,8.9249,106.4273,343.6867,2.419174,0.2619410,0.46989565,104.5248,06/09.0/2026,2000,H19.08,0.15
# From MPO698599
376788 (376788),e,16.3294,330.3025,210.9895,1.040845,0.9281641,0.49600033,230.5269,06/09.0/2026,2000,H19.55,0.15
# From MPEC 2023-Y46
377972 (377972),e,3.0429,196.4505,64.9590,2.219657,0.2980404,0.42490121,18.4451,06/09.0/2026,2000,H19.38,0.15
# From MPO698645
379235 (379235),e,2.1772,132.5524,234.2183,2.465262,0.2546299,0.19286520,116.9434,06/09.0/2026,2000,H18.55,0.15
# From MPO698648
379393 (379393),e,6.3809,263.7797,110.8903,2.760245,0.2149228,0.24123916,245.7802,06/09.0/2026,2000,H17.25,0.15
# From MPO698679
381050 (381050),e,48.8200,275.0881,154.8867,3.613378,0.1434941,0.43814956,307.2189,06/09.0/2026,2000,H15.96,0.15
# From MPO730954
382004 (382004),e,26.9782,113.7184,291.8965,19.86601,0.0111311,0.68910721,55.3931,06/09.0/2026,2000,H11.24,0.15
# From MPO698727
383568 (383568),e,9.9668,160.0062,269.2593,2.367356,0.2705881,0.23475683,159.4618,06/09.0/2026,2000,H18.25,0.15
# From MPO698757
385185 (385185),e,3.7142,170.3256,189.8959,39.40556,0.0039844,0.19851058,40.9333,06/09.0/2026,2000,H 7.87,0.15
# From MPO890971
385201 (385201),e,12.4134,140.7633,101.9948,43.30690,0.0034583,0.06937407,153.2163,06/09.0/2026,2000,H 6.49,0.15
# From MPO698758
385252 (385252),e,50.0641,155.4612,101.9199,1.052992,0.9121504,0.18367153,58.9296,06/09.0/2026,2000,H19.41,0.15
# From MPO698762
385447 (385447),e,4.4636,114.2272,205.8132,43.77441,0.0034031,0.02670853,25.1554,06/09.0/2026,2000,H 6.53,0.15
# From MPO698764
385533 (385533),e,23.8999,135.3400,114.0580,42.97959,0.0034979,0.11233079,82.8985,06/09.0/2026,2000,H 6.94,0.15
# From MPO698764
385571 Otrera,e,1.4330,34.8105,8.2775,30.28157,0.0059148,0.03068037,10.0031,06/09.0/2026,2000,H 8.91,0.15
# From MPO698767
385695 Clete,e,5.2519,169.4094,301.7101,30.28189,0.0059147,0.05652956,307.3649,06/09.0/2026,2000,H 8.49,0.15
# From MPO698804
387668 (387668),e,22.8946,346.8094,276.6115,1.297112,0.6671721,0.43341473,63.1331,06/09.0/2026,2000,H20.51,0.15
# From MPO698815
388259 (388259),e,0.4181,318.9079,58.5485,2.206216,0.3007682,0.36812953,2.1398,06/09.0/2026,2000,H18.29,0.15
# From MPO698835
389325 (389325),e,0.9718,25.9011,357.0027,2.262455,0.2896237,0.24473266,307.5367,06/09.0/2026,2000,H18.25,0.15
# From MPO698842
389694 (389694),e,19.0708,358.7770,106.8163,1.545377,0.5130413,0.49211331,164.5258,06/09.0/2026,2000,H18.20,0.15
# From MPO698845
389820 (389820),e,6.4664,101.1760,22.1809,8.811752,0.0376800,0.37308487,176.4482,06/09.0/2026,2000,H13.04,0.15
# From MPO698870
391151 (391151),e,24.7985,294.7908,313.3161,2.584551,0.2372064,0.88068360,313.2555,06/09.0/2026,2000,H17.23,0.15
# From MPEC 2024-H69
391191 (391191),e,13.7843,144.6442,66.8828,2.568062,0.2394946,0.19307845,304.2288,06/09.0/2026,2000,H17.68,0.15
# From MPO698876
391508 (391508),e,11.1143,146.7218,321.8333,2.117594,0.3198453,0.68440737,8.9976,06/09.0/2026,2000,H19.11,0.15
# From MPO698926
394155 (394155),e,4.5945,164.3084,142.9479,2.545485,0.2426880,0.51251139,319.5057,06/09.0/2026,2000,H20.05,0.15
# From MPO698933
394512 (394512),e,9.1473,223.2917,114.5165,2.454380,0.2563253,0.28174699,335.7897,06/09.0/2026,2000,H18.12,0.15
# From MPO698951
395460 (395460),e,0.6121,211.5526,112.5917,2.433326,0.2596592,0.19336395,343.0846,06/09.0/2026,2000,H18.46,0.15
# From MPO698956
395699 (395699),e,12.6196,350.6570,171.4822,15.05593,0.0168711,0.37416868,101.5261,06/09.0/2026,2000,H10.75,0.15
# From MPO698975
396749 (396749),e,2.6903,255.8870,78.5204,2.469810,0.2539269,0.29578983,326.4518,06/09.0/2026,2000,H18.34,0.15
# From MPO698986
397301 (397301),e,2.1453,21.9395,291.8472,2.662922,0.2268121,0.27679262,227.7016,06/09.0/2026,2000,H18.14,0.15
# From MPO698990
397538 (397538),e,1.3721,162.6718,165.3844,2.453486,0.2564653,0.21134047,329.5030,06/09.0/2026,2000,H18.52,0.15
# From MPO698991
397574 (397574),e,1.7820,221.1434,123.3396,2.482232,0.2520232,0.23327736,314.4741,06/09.0/2026,2000,H18.11,0.15
# From MPO699007
398450 (398450),e,1.5313,163.4542,176.4116,2.455485,0.2561522,0.20022497,322.6752,06/09.0/2026,2000,H17.84,0.15
# From MPO968974
399093 (399093),e,6.5483,137.7168,99.2749,2.620244,0.2323760,0.26488415,276.5604,06/09.0/2026,2000,H17.80,0.15
# From MPO891058
399433 (399433),e,4.3764,155.6813,210.8554,2.655058,0.2278206,0.77655388,249.6350,06/09.0/2026,2000,H18.58,0.15
# From MPO699027
399464 (399464),e,11.0108,210.4820,134.1608,2.560817,0.2405117,0.36942119,291.9998,06/09.0/2026,2000,H18.00,0.15
# From MPO699030
399632 (399632),e,6.5473,74.2634,280.1652,2.271148,0.2879626,0.35916750,123.1897,06/09.0/2026,2000,H18.59,0.15
# From MPO904593
400039 (400039),e,13.6945,200.2357,157.9749,2.564261,0.2400274,0.25897951,287.4071,06/09.0/2026,2000,H18.00,0.15
# From MPO699038
400051 (400051),e,3.9309,210.6798,118.7835,2.567910,0.2395159,0.29875138,303.3776,06/09.0/2026,2000,H17.99,0.15
# From MPO699038
400056 (400056),e,5.2339,27.6544,299.5491,2.565119,0.2399069,0.24366822,305.5709,06/09.0/2026,2000,H17.75,0.15
# From MPO699053
400862 (400862),e,6.2580,298.3665,36.5573,2.553261,0.2415801,0.31728066,309.8542,06/09.0/2026,2000,H18.08,0.15
# From MPEC 2024-CG3
401856 (401856),e,24.2708,82.6193,63.6051,1.452500,0.5630276,0.47806340,356.4502,06/09.0/2026,2000,H20.27,0.15
# From MPEC 2024-H40
402036 (402036),e,14.9474,199.9315,165.7877,3.196893,0.1724297,0.26446474,0.5092,06/09.0/2026,2000,H16.91,0.15
# From MPO699076
402097 (402097),e,6.1010,1.3467,2.1253,3.210452,0.1713385,0.14921362,343.6451,06/09.0/2026,2000,H17.30,0.15
# From MPO699085
402567 (402567),e,2.9914,356.6729,334.5447,2.560509,0.2405551,0.31610516,303.8439,06/09.0/2026,2000,H18.31,0.15
# From MPO699085
